COMMENT,ORIGINATOR,NORAD_CAT_ID,OBJECT_NAME,OBJECT_TYPE,CLASSIFICATION_TYPE,INTLDES,EPOCH,EPOCH_MICROSECONDS,MEAN_MOTION,ECCENTRICITY,INCLINATION,RA_OF_ASC_NODE,ARG_OF_PERICENTER,MEAN_ANOMALY,EPHEMERIS_TYPE,ELEMENT_SET_NO,REV_AT_EPOCH,BSTAR,MEAN_MOTION_DOT,MEAN_MOTION_DDOT,FILE,TLE_LINE0,TLE_LINE1,TLE_LINE2,OBJECT_ID,OBJECT_NUMBER,SEMIMAJOR_AXIS,PERIOD,APOGEE,PERIGEE,DECAYED
"GENERATED VIA SPACETRACK.ORG API","18 SPCS","12345","COSMOS 1174 DEB","DEBRIS","U","80030T","1990-08-27 17:06:13","53312","14.67726687","0.0393986","66.0486","144.6664","258.7921","96.8714","0","999","98110","0.0021662","0.0004156","0","131174","0 COSMOS 1174 DEB","1 12345U 80030  T 90239.71265108  .00041560 +00000-0 +21662-2 0  9994","2 12345 066.0486 144.6664 0393986 258.7921 096.8714 14.67726687981108","1980-030T","12345","7046.476","98.111","945.963","390.720","1"
"GENERATED VIA SPACETRACK.ORG API","18 SPCS","12345","COSMOS 1174 DEB","DEBRIS","U","80030T","1990-08-27 04:01:13","54080","14.67680846","0.0394092","66.0488","146.2265","259.1154","96.527","0","999","98102","0.0021644","0.0004149","0","131174","0 COSMOS 1174 DEB","1 12345U 80030  T 90239.16751220  .00041490 +00000-0 +21644-2 0  9990","2 12345 066.0488 146.2265 0394092 259.1154 096.5270 14.67680846981028","1980-030T","12345","7046.623","98.114","946.190","390.786","1"
"GENERATED VIA SPACETRACK.ORG API","18 SPCS","12345","COSMOS 1174 DEB","DEBRIS","U","80030T","1990-08-27 04:01:13","109376","14.67680846","0.0394092","66.0488","146.2266","259.1155","96.527","0","999","98102","0.0021644","0.00041584","0","34725","0 COSMOS 1174 DEB","1 12345U 80030  T 90239.16751284  .00041584 +00000-0 +21644-2 0  9994","2 12345 066.0488 146.2266 0394092 259.1155 096.5270 14.67680846981020","1980-030T","12345","7046.623","98.114","946.190","390.786","1"
"GENERATED VIA SPACETRACK.ORG API","18 SPCS","12345","COSMOS 1174 DEB","DEBRIS","U","80030T","1990-08-27 00:44:57","566976","14.67672404","0.0394089","66.0496","146.6169","259.1289","96.506","0","999","98100","0.0021808","0.00041889","0","34725","0 COSMOS 1174 DEB","1 12345U 80030  T 90239.03122184  .00041889 +00000-0 +21808-2 0  9991","2 12345 066.0496 146.6169 0394089 259.1289 096.5060 14.67672404981005","1980-030T","12345","7046.650","98.115","946.216","390.814","1"
"GENERATED VIA SPACETRACK.ORG API","18 SPCS","12345","COSMOS 1174 DEB","DEBRIS","U","80030T","1990-08-26 03:29:16","662335","14.67606261","0.0394458","66.0477","149.1498","259.7335","95.888","0","999","98087","0.0022409","0.00043056","0","34725","0 COSMOS 1174 DEB","1 12345U 80030  T 90238.14533174  .00043056 +00000-0 +22409-2 0  9993","2 12345 066.0477 149.1498 0394458 259.7335 095.8880 14.67606261980879","1980-030T","12345","7046.862","98.119","946.696","390.758","1"
"GENERATED VIA SPACETRACK.ORG API","18 SPCS","12345","COSMOS 1174 DEB","DEBRIS","U","80030T","1990-08-26 00:13:00","475392","14.67601229","0.0394029","66.0487","149.5407","259.8518","95.7634","0","999","98085","0.0022935","0.00043943","0","34725","0 COSMOS 1174 DEB","1 12345U 80030  T 90238.00903328  .00043943 +00000-0 +22935-2 0  9999","2 12345 066.0487 149.5407 0394029 259.8518 095.7634 14.67601229980855","1980-030T","12345","7046.878","98.119","946.410","391.075","1"
"GENERATED VIA SPACETRACK.ORG API","18 SPCS","12345","COSMOS 1174 DEB","DEBRIS","U","80030T","1990-08-24 23:41:00","212064","14.67519197","0.0393989","66.0511","152.4669","260.55","95.0885","0","999","98070","0.0023715","0.00045305","0","34725","0 COSMOS 1174 DEB","1 12345U 80030  T 90236.98680801  .00045305 +00000-0 +23715-2 0  9993","2 12345 066.0511 152.4669 0393989 260.5500 095.0885 14.67519197980707","1980-030T","12345","7047.140","98.125","946.655","391.356","1"
"GENERATED VIA SPACETRACK.ORG API","18 SPCS","12345","COSMOS 1174 DEB","DEBRIS","U","80030T","1990-08-24 04:03:22","49279","14.67411679","0.0395711","66.0461","154.8078","260.922","94.7227","0","999","98058","0.0020039","0.00038516","0","34725","0 COSMOS 1174 DEB","1 12345U 80030  T 90236.16900520  .00038516 +00000-0 +20039-2 0  9998","2 12345 066.0461 154.8078 0395711 260.9220 094.7227 14.67411679980587","1980-030T","12345","7047.485","98.132","948.226","390.473","1"
"GENERATED VIA SPACETRACK.ORG API","18 SPCS","12345","COSMOS 1174 DEB","DEBRIS","U","80030T","1990-08-24 04:03:21","994847","14.6741168","0.0395711","66.0461","154.8078","260.9219","94.7227","0","999","98058","0.0020039","0.00038443","0","131174","0 COSMOS 1174 DEB","1 12345U 80030  T 90236.16900457  .00038443 +00000-0 +20039-2 0  9996","2 12345 066.0461 154.8078 0395711 260.9219 094.7227 14.67411680980587","1980-030T","12345","7047.485","98.132","948.226","390.473","1"
"GENERATED VIA SPACETRACK.ORG API","18 SPCS","12345","COSMOS 1174 DEB","DEBRIS","U","80030T","1990-08-24 04:03:21","559392","14.67438002","0.0394059","66.0516","154.8046","261.1033","94.5864","0","999","98058","0.0023113","0.00044043","0","34725","0 COSMOS 1174 DEB","1 12345U 80030  T 90236.16899953  .00044043 +00000-0 +23113-2 0  9993","2 12345 066.0516 154.8046 0394059 261.1033 094.5864 14.67438002980586","1980-030T","12345","7047.400","98.130","946.975","391.556","1"
"GENERATED VIA SPACETRACK.ORG API","18 SPCS","12345","COSMOS 1174 DEB","DEBRIS","U","80030T","1990-08-23 00:14:53","147903","14.67308057","0.0396084","66.0478","158.1239","261.7522","93.8652","0","999","98041","0.0018955","0.00036313","0","131174","0 COSMOS 1174 DEB","1 12345U 80030  T 90235.01033736  .00036313 +00000-0 +18955-2 0  9994","2 12345 066.0478 158.1239 0396084 261.7522 093.8652 14.67308057980418","1980-030T","12345","7047.816","98.139","948.834","390.529","1"
"GENERATED VIA SPACETRACK.ORG API","18 SPCS","12345","COSMOS 1174 DEB","DEBRIS","U","80030T","1990-08-22 19:20:26","932127","14.6729085","0.0396082","66.0474","158.7086","261.895","93.7687","0","999","98038","0.0018799","0.00036051","0","34725","0 COSMOS 1174 DEB","1 12345U 80030  T 90234.80586727  .00036051 +00000-0 +18799-2 0  9998","2 12345 066.0474 158.7086 0396082 261.8950 093.7687 14.67290850980388","1980-030T","12345","7047.872","98.140","948.890","390.583","1"
"GENERATED VIA SPACETRACK.ORG API","18 SPCS","12345","COSMOS 1174 DEB","DEBRIS","U","80030T","1990-08-22 04:37:06","494592","14.67237883","0.0395928","66.0483","160.4606","262.3036","93.4603","0","999","98029","0.0018086","0.0003457","0","34725","0 COSMOS 1174 DEB","1 12345U 80030  T 90234.19243628  .00034570 +00000-0 +18086-2 0  9993","2 12345 066.0483 160.4606 0395928 262.3036 093.4603 14.67237883980297","1980-030T","12345","7048.041","98.144","948.958","390.854","1"
"GENERATED VIA SPACETRACK.ORG API","18 SPCS","12345","COSMOS 1174 DEB","DEBRIS","U","80030T","1990-08-21 23:42:38","727936","14.67188399","0.0396506","66.0417","161.0386","262.442","93.1899","0","999","98026","0.0014778","0.00028234","0","131174","0 COSMOS 1174 DEB","1 12345U 80030  T 90233.98794824  .00028234 +00000-0 +14778-2 0  9992","2 12345 066.0417 161.0386 0396506 262.4420 093.1899 14.67188399980265","1980-030T","12345","7048.200","98.147","949.530","390.599","1"
"GENERATED VIA SPACETRACK.ORG API","18 SPCS","12345","COSMOS 1174 DEB","DEBRIS","U","80030T","1990-08-21 05:42:53","2079","14.67140927","0.0396148","66.0443","163.1834","262.8318","92.7732","0","999","98015","0.0014596","0.00027789","0","34725","0 COSMOS 1174 DEB","1 12345U 80030  T 90233.23811345  .00027789 +00000-0 +14596-2 0  9990","2 12345 066.0443 163.1834 0396148 262.8318 092.7732 14.67140927980151","1980-030T","12345","7048.352","98.150","949.436","390.998","1"
"GENERATED VIA SPACETRACK.ORG API","18 SPCS","12345","COSMOS 1174 DEB","DEBRIS","U","80030T","1990-08-21 02:26:33","672768","14.67131408","0.0396154","66.045","163.574","262.9341","92.6623","0","999","98013","0.0014513","0.00027606","0","131174","0 COSMOS 1174 DEB","1 12345U 80030  T 90233.10177862  .00027606 +00000-0 +14513-2 0  9992","2 12345 066.0450 163.5740 0396154 262.9341 092.6623 14.67131408980133","1980-030T","12345","7048.382","98.151","949.472","391.023","1"
"GENERATED VIA SPACETRACK.ORG API","18 SPCS","12345","COSMOS 1174 DEB","DEBRIS","U","80030T","1990-08-20 19:53:54","602879","14.67113828","0.039598","66.0422","164.3479","262.9774","92.6189","0","999","98009","0.0014474","0.00027495","0","34725","0 COSMOS 1174 DEB","1 12345U 80030  T 90232.82910420  .00027495 +00000-0 +14474-2 0  9997","2 12345 066.0422 164.3479 0395980 262.9774 092.6189 14.67113828980094","1980-030T","12345","7048.438","98.152","949.408","391.199","1"
"GENERATED VIA SPACETRACK.ORG API","18 SPCS","12345","COSMOS 1174 DEB","DEBRIS","U","80030T","1990-08-20 05:10:26","177663","14.67077242","0.039557","66.0439","166.106","263.2079","92.4134","0","999","98000","0.0014398","0.00027241","0","34725","0 COSMOS 1174 DEB","1 12345U 80030  T 90232.21558076  .00027241 +00000-0 +14398-2 0  9999","2 12345 066.0439 166.1060 0395570 263.2079 092.4134 14.67077242980003","1980-030T","12345","7048.556","98.154","949.240","391.601","1"
"GENERATED VIA SPACETRACK.ORG API","18 SPCS","12345","COSMOS 1174 DEB","DEBRIS","U","80030T","1990-08-20 00:15:56","194847","14.67060703","0.0397756","66.0374","166.6812","263.4651","92.1065","0","999","97997","0.0014055","0.00026945","0","131174","0 COSMOS 1174 DEB","1 12345U 80030  T 90232.01106707  .00026945 +00000-0 +14055-2 0  9997","2 12345 066.0374 166.6812 0397756 263.4651 092.1065 14.67060703979975","1980-030T","12345","7048.609","98.155","950.836","390.111","1"
"GENERATED VIA SPACETRACK.ORG API","18 SPCS","12345","COSMOS 1174 DEB","DEBRIS","U","80030T","1990-08-19 19:21:27","560735","14.67048907","0.0397933","66.037","167.2647","263.5639","92.0962","0","999","97994","0.0014019","0.00026908","0","34725","0 COSMOS 1174 DEB","1 12345U 80030  T 90231.80656899  .00026908 +00000-0 +14019-2 0  9994","2 12345 066.0370 167.2647 0397933 263.5639 092.0962 14.67048907979942","1980-030T","12345","7048.646","98.156","951.000","390.022","1"
